ONEWEB-0066             
1 45424U 20020A   24017.46081642 -.00000264  00000+0 -78034-3 0  9996
2 45424  87.8965 196.3094 0001890 100.9341 259.2000 13.11418235187128
ONEWEB-0067             
1 45425U 20020B   24016.87399865  .00000509  00000+0  14006-2 0  9998
2 45425  87.8956 196.3918 0001359 102.6150 257.5130 13.11414726187093
ONEWEB-0080             
1 45426U 20020C   24017.05173373 -.00000441  00000+0 -12793-2 0  9992
2 45426  87.8961 196.3935 0001794  93.9559 266.1774 13.11415071187091
ONEWEB-0090             
1 45427U 20020D   24016.91699755 -.00000464  00000+0 -13453-2 0  9993
2 45427  87.8969 196.3972 0001636  91.6268 268.5047 13.11418362187037
ONEWEB-0061             
1 45428U 20020E   24017.02578922  .00000146  00000+0  37562-3 0  9992
2 45428  87.8961 196.3801 0001523  95.3876 264.7426 13.11426074187007
ONEWEB-0081             
1 45429U 20020F   24016.92999082  .00000279  00000+0  75254-3 0  9992
2 45429  87.8964 196.4154 0001533 101.0996 259.0305 13.11419500187102
ONEWEB-0069             
1 45430U 20020G   24017.45432249 -.00000382  00000+0 -11148-2 0  9998
2 45430  87.8964 196.2994 0001580  91.8927 268.2382 13.11418568187117
ONEWEB-0031             
1 45431U 20020H   24016.89102774 -.00000126  00000+0 -39054-3 0  9996
2 45431  87.8968 196.4105 0001280  82.2683 277.8590 13.11414609187016
